[{"OBJECT_NAME":"STARLINK-2592","OBJECT_ID":"2021-038BH","EPOCH":"2026-03-09T21:49:49.251648","MEAN_MOTION":15.30181978,"ECCENTRICITY":0.0001165,"INCLINATION":53.16,"RA_OF_ASC_NODE":332.0634,"ARG_OF_PERICENTER":103.8382,"MEAN_ANOMALY":256.2748,"EPHEMERIS_TYPE":0,"CLASSIFICATION_TYPE":"U","NORAD_CAT_ID":48408,"ELEMENT_SET_NO":999,"REV_AT_EPOCH":26746,"BSTAR":-9.0579688e-5,"MEAN_MOTION_DOT":-3.039e-5,"MEAN_MOTION_DDOT":0},{"OBJECT_NAME":"ATLAS 5 CENTAUR R\/B","OBJECT_ID":"2013-072P","EPOCH":"2026-03-09T21:36:10.628064","MEAN_MOTION":14.96443736,"ECCENTRICITY":0.0189428,"INCLINATION":120.4328,"RA_OF_ASC_NODE":111.5185,"ARG_OF_PERICENTER":160.796,"MEAN_ANOMALY":200.0359,"EPHEMERIS_TYPE":0,"CLASSIFICATION_TYPE":"U","NORAD_CAT_ID":39475,"ELEMENT_SET_NO":999,"REV_AT_EPOCH":9970,"BSTAR":0.00054929733,"MEAN_MOTION_DOT":8.701e-5,"MEAN_MOTION_DDOT":0}]
